#aV2008  8 17  0  0   .00000000      96 DD+AD WGS84 FIT  NGA
## 1493       .00000000   900.00000000 54695  .0000000000000
+   31     2  3  4  5  6  7  8  9 10 11 12 13 14 15 16 17 18
+         19 20 21 22 23 24 25 26 27 28 29 30 31 32  0  0  0
+          0  0  0  0  0  0  0  0  0  0  0  0  0  0  0  0  0
+          0  0  0  0  0  0  0  0  0  0  0  0  0  0  0  0  0
+          0  0  0  0  0  0  0  0  0  0  0  0  0  0  0  0  0
++         0  0  0  0  0  0  0  0  0  0  0  0  0  0  0  0  0
++         0  0  0  0  0  0  0  0  0  0  0  0  0  0  0  0  0
++         0  0  0  0  0  0  0  0  0  0  0  0  0  0  0  0  0
++         0  0  0  0  0  0  0  0  0  0  0  0  0  0  0  0  0
++         0  0  0  0  0  0  0  0  0  0  0  0  0  0  0  0  0
%c cc cc ccc ccc cccc cccc cccc cccc ccccc ccccc ccccc ccccc
%c cc cc ccc ccc cccc cccc cccc cccc ccccc ccccc ccccc ccccc
%f  0.0000000  0.000000000  0.00000000000  0.000000000000000
%f  0.0000000  0.000000000  0.00000000000  0.000000000000000
%i    0    0    0    0      0      0      0      0         0
%i    0    0    0    0      0      0      0      0         0
/*      NGA, ST. LOUIS,MO.                                  
/*   EPHEMERIS COMPUTED FROM  3 DAYS OF DATA                
/* CCCCCCCCCCCCCCCCCCCCCCCCCCCCCCCCCCCCCCCCCCCCCCCCCCCCCCCCC
/* CCCCCCCCCCCCCCCCCCCCCCCCCCCCCCCCCCCCCCCCCCCCCCCCCCCCCCCCC
*  2008  8 17  0 15   .00000000                                                 
P  2 -13524.137234 -18325.273578 -14104.868136    194.370716                    
V  2   -705.849667 -17706.802119  23556.716381      -.027676                    
P  3  23496.508904  11187.794886  -6450.729243    270.654393                    
V  3  -8411.529868   1280.779397 -29309.492332       .053023                    
P  4  -6784.527859 -25166.512369  -4040.994598   -144.570629                    
V  4   2867.793896  -5568.265452  30997.664120      -.105039                    
P  5 -21213.355113  14475.671822   6203.407547    542.879211                    
V  5   3559.047279  -8222.988399  30107.892731     -2.681817                    
P  6  20272.317976  14165.710167  -9483.431920    167.204531                    
V  6 -12783.871155   -750.133404 -27892.067488       .009270                    
P  7   8580.533569 -18946.507746 -16497.004535      9.168503                    
V  7   5133.352490  20364.663797 -20843.237196       .038750                    
P  8   1330.551379 -25590.103242  -6010.161569   -166.123111                    
V  8   3159.556016   7320.458409 -31358.915590      -.014224                    
P  9 -14419.483922   2692.957354  21502.207919     10.367144                    
V  9  -5632.096761 -28268.781891   -101.287206       .017483                    
P 10 -15578.959288  -6263.599820 -20789.152357     -3.909000                    
V 10  20165.616502 -16433.498396  -9907.297426      -.002920                    
P 11  15505.866677  -6009.512408  20544.494826     21.542774                    
V 11   9513.681931  25051.617856    486.254272      -.006188                    
P 12 -22660.132945   8848.334699  10618.933152   -354.298147                    
V 12   8903.655821 -10294.796718  27882.141771       .011516                    
P 13  12857.756933  -9464.912882 -21342.787706    267.885635                    
V 13  24281.805834  11192.706072   9725.291962       .013258                    
P 14   6389.523071  16737.571262  19752.088783   -231.296844                    
V 14 -23136.871461  -8804.354454  14915.063799       .045583                    
P 15 -25489.620867  -6190.627135   4239.810210   -161.185815                    
V 15  -4043.105928  -4523.628363 -31069.132486      -.064963                    
P 16  10563.112467  10829.901233 -21775.949769    111.825494                    
V 16 -21843.105282  17152.677545  -1856.195737      -.018849                    
P 17  -6678.775899 -17151.998576  19251.502494     38.930829                    
V 17  23044.049860   7811.842253  14821.022682      -.000411                    
P 18 -15927.506332  19437.448295   8189.974324   -144.228230                    
V 18 -10165.742731   3567.403113 -29298.180710       .041654                    
P 19  25054.212960   7229.966730   5670.409353     34.757416                    
V 19   5292.353752   5367.304040 -30463.360379       .003520                    
P 20  22529.444769 -11415.279467   8056.270518    107.260439                    
V 20  -5959.913304   9082.402332  29157.434431      -.010618                    
P 21  -5923.974531  22473.877307 -12065.646922     54.186327                    
V 21  -5609.726260 -15318.651014 -25961.937450      -.013945                    
P 22  -4209.717887  19296.917962  17889.296006    211.310200                    
V 22 -19126.022928  11944.969107 -17605.767505       .000429                    
P 23  21968.901000  -2487.605671 -14974.855111    369.293958                    
V 23  16931.374418   8273.873284  23304.853472       .016221                    
P 24 -13354.792917  10635.864386 -20248.935862    117.671403                    
V 24  -3760.329161 -25784.947101 -10704.723883       .029606                    
P 25  11002.486403 -12954.836182 -20101.133562   -227.773779                    
V 25   7545.430114  25170.051646 -11710.329754      -.239055                    
P 26 -24471.778721 -11054.889662   -508.333339    310.970807                    
V 26    556.496795  -1199.169824 -32103.173413       .061323                    
P 27   5176.468566 -21358.268087 -14151.493511    210.637683                    
V 27   6309.735025  18237.016039 -24202.054943       .028016                    
P 28   5286.011515 -19404.176816  17563.858780    -21.882097                    
V 28  18229.252830 -11829.863655 -19309.026495      -.002151                    
P 29 -16023.549712   8163.500366 -19419.517349    -39.741374                    
V 29 -22594.988067 -10593.879097  14138.254994       .008014                    
P 30 -18504.476846  18841.694069  -2644.436471     91.559584                    
V 30  -4335.907975   -459.538507  31330.985203       .021094                    
P 31   8462.971764  24220.627315  -6448.316312    -25.081366                    
V 31  -1178.613435   8775.105293  30569.972737      -.000414                    
P 32  22287.460713  -3201.574428  14376.982956    313.551092                    
V 32 -13428.649523  11506.902114  24286.259122       .015396                    
EOF
